KUIPER-00035            
1 63748U 25088AA  25291.55701834  .00006772  00000+0  91634-3 0  9990
2 63748  51.9020  22.6157 0004734 321.6631  38.3994 14.79934262 26461
KUIPER-00037            
1 63749U 25088AB  25291.62623670  .00000823  00000+0  13730-3 0  9992
2 63749  51.9008  21.2657 0007432 268.5212  91.4899 14.79892391 27270
KUIPER-00038            
1 63750U 25088AC  25291.90264257  .00003831  00000+0  56760-3 0  9999
2 63750  51.9032   4.9492 0005882 336.4366  23.6325 14.77077681 26529
KUIPER-00039            
1 64500U 25134A   25291.95256598  .00006906  00000+0  93293-3 0  9997
2 64500  51.8988 139.8360 0011967 180.5234 179.5718 14.79946451 19089
KUIPER-00040            
1 64501U 25134B   25291.80512065  .00000917  00000+0  14955-3 0  9990
2 64501  51.9013 151.6525 0018582 161.9907 198.1717 14.79927309 18902
KUIPER-00041            
1 64502U 25134C   25291.87160240  .00003379  00000+0  47145-3 0  9994
2 64502  51.8992 152.7158 0015083 152.5505 207.6257 14.79946154 18897
KUIPER-00042            
1 64503U 25134D   25291.87535734 -.00002962  00000+0 -35866-3 0  9995
2 64503  51.8992 148.6980 0013670 163.0182 197.1240 14.79930681 18953
KUIPER-00043            
1 64504U 25134E   25291.95104473  .00006870  00000+0  92963-3 0  9998
2 64504  51.9003 140.7994 0004404 146.9874 213.1364 14.79913053 19073
